{
  "type": "FeatureCollection",
  "features": [
    {
      "type": "Feature",
      "properties": {
        "norad_id": 40010,
        "name": "KAZEOSAT 2",
        "group": "resource",
        "lat": 33.73957894559071,
        "lon": 30.109780358251335,
        "alt_km": 604.8181823221739,
        "timestamp": "2025-12-27T11:23:19.534448+00:00",
        "meta_object_name": "KAZEOSAT 2",
        "meta_object_id": "2014-033A",
        "meta_epoch": "2025-12-27T04:15:59.682240",
        "meta_mean_motion": 14.85189911,
        "meta_eccentricity": 0.0008866,
        "meta_inclination": 97.5496,
        "meta_ra_of_asc_node": 204.7465,
        "meta_arg_of_pericenter": 157.8936,
        "meta_mean_anomaly": 202.2663,
        "meta_ephemeris_type": 0,
        "meta_classification_type": "U",
        "meta_norad_cat_id": 40010,
        "meta_element_set_no": 999,
        "meta_rev_at_epoch": 62342,
        "meta_bstar": 6.9758e-05,
        "meta_mean_motion_dot": 5.48e-06,
        "meta_mean_motion_ddot": 0,
        "tle_line1": "1 40010U 14033A   25361.17777410  .00000548  00000+0  69758-4 0  9992",
        "tle_line2": "2 40010  97.5496 204.7465 0008866 157.8936 202.2663 14.85189911623427"
      },
      "geometry": {
        "type": "Point",
        "coordinates": [
          30.109780358251335,
          33.73957894559071
        ]
      }
    },
    {
      "type": "Feature",
      "properties": {
        "norad_id": 40011,
        "name": "HODOYOSHI-4",
        "group": "resource",
        "lat": -3.311422288765162,
        "lon": -169.92877791420696,
        "alt_km": 624.5338010809146,
        "timestamp": "2025-12-27T11:23:19.534458+00:00",
        "meta_object_name": "HODOYOSHI-4",
        "meta_object_id": "2014-033B",
        "meta_epoch": "2025-12-27T03:19:54.219936",
        "meta_mean_motion": 14.87530599,
        "meta_eccentricity": 0.0024363,
        "meta_inclination": 97.5412,
        "meta_ra_of_asc_node": 189.313,
        "meta_arg_of_pericenter": 152.9074,
        "meta_mean_anomaly": 207.3421,
        "meta_ephemeris_type": 0,
        "meta_classification_type": "U",
        "meta_norad_cat_id": 40011,
        "meta_element_set_no": 999,
        "meta_rev_at_epoch": 62322,
        "meta_bstar": 0.000122,
        "meta_mean_motion_dot": 1.061e-05,
        "meta_mean_motion_ddot": 0,
        "tle_line1": "1 40011U 14033B   25361.13882199  .00001061  00000+0  12200-3 0  9990",
        "tle_line2": "2 40011  97.5412 189.3130 0024363 152.9074 207.3421 14.87530599623222"
      },
      "geometry": {
        "type": "Point",
        "coordinates": [
          -169.92877791420696,
          -3.311422288765162
        ]
      }
    },
    {
      "type": "Feature",
      "properties": {
        "norad_id": 40013,
        "name": "DEIMOS-2",
        "group": "resource",
        "lat": 81.0822369713126,
        "lon": 178.41975674249022,
        "alt_km": 580.11735806248,
        "timestamp": "2025-12-27T11:23:19.534468+00:00",
        "meta_object_name": "DEIMOS-2",
        "meta_object_id": "2014-033D",
        "meta_epoch": "2025-12-27T04:34:27.089184",
        "meta_mean_motion": 14.93037166,
        "meta_eccentricity": 0.000143,
        "meta_inclination": 97.6047,
        "meta_ra_of_asc_node": 236.5143,
        "meta_arg_of_pericenter": 108.3979,
        "meta_mean_anomaly": 251.7396,
        "meta_ephemeris_type": 0,
        "meta_classification_type": "U",
        "meta_norad_cat_id": 40013,
        "meta_element_set_no": 999,
        "meta_rev_at_epoch": 61205,
        "meta_bstar": 0.0004261,
        "meta_mean_motion_dot": 4.38e-05,
        "meta_mean_motion_ddot": 0,
        "tle_line1": "1 40013U 14033D   25361.19059131  .00004380  00000+0  42610-3 0  9995",
        "tle_line2": "2 40013  97.6047 236.5143 0001430 108.3979 251.7396 14.93037166612059"
      },
      "geometry": {
        "type": "Point",
        "coordinates": [
          178.41975674249022,
          81.0822369713126
        ]
      }
    },
    {
      "type": "Feature",
      "properties": {
        "norad_id": 40015,
        "name": "HODOYOSHI-3",
        "group": "resource",
        "lat": 39.17574983983713,
        "lon": -7.066991598907269,
        "alt_km": 598.7999459522098,
        "timestamp": "2025-12-27T11:23:19.534478+00:00",
        "meta_object_name": "HODOYOSHI-3",
        "meta_object_id": "2014-033F",
        "meta_epoch": "2025-12-27T02:40:13.378944",
        "meta_mean_motion": 14.84856759,
        "meta_eccentricity": 0.0032673,
        "meta_inclination": 97.6206,
        "meta_ra_of_asc_node": 166.3222,
        "meta_arg_of_pericenter": 199.1432,
        "meta_mean_anomaly": 160.8558,
        "meta_ephemeris_type": 0,
        "meta_classification_type": "U",
        "meta_norad_cat_id": 40015,
        "meta_element_set_no": 999,
        "meta_rev_at_epoch": 62208,
        "meta_bstar": 0.00022451,
        "meta_mean_motion_dot": 1.874e-05,
        "meta_mean_motion_ddot": 0,
        "tle_line1": "1 40015U 14033F   25361.11126596  .00001874  00000+0  22451-3 0  9995",
        "tle_line2": "2 40015  97.6206 166.3222 0032673 199.1432 160.8558 14.84856759622082"
      },
      "geometry": {
        "type": "Point",
        "coordinates": [
          -7.066991598907269,
          39.17574983983713
        ]
      }
    },
    {
      "type": "Feature",
      "properties": {
        "norad_id": 40053,
        "name": "SPOT 7",
        "group": "resource",
        "lat": 27.564026549507798,
        "lon": 58.95182354841716,
        "alt_km": 688.9657403697584,
        "timestamp": "2025-12-27T11:23:19.534488+00:00",
        "meta_object_name": "SPOT 7",
        "meta_object_id": "2014-034A",
        "meta_epoch": "2025-12-27T04:41:08.659968",
        "meta_mean_motion": 14.60751659,
        "meta_eccentricity": 0.0001492,
        "meta_inclination": 98.0882,
        "meta_ra_of_asc_node": 62.936,
        "meta_arg_of_pericenter": 81.2775,
        "meta_mean_anomaly": 278.8595,
        "meta_ephemeris_type": 0,
        "meta_classification_type": "U",
        "meta_norad_cat_id": 40053,
        "meta_element_set_no": 999,
        "meta_rev_at_epoch": 61202,
        "meta_bstar": 0.00010775,
        "meta_mean_motion_dot": 4.8e-06,
        "meta_mean_motion_ddot": 0,
        "tle_line1": "1 40053U 14034A   25361.19523912  .00000480  00000+0  10775-3 0  9997",
        "tle_line2": "2 40053  98.0882  62.9360 0001492  81.2775 278.8595 14.60751659612020"
      },
      "geometry": {
        "type": "Point",
        "coordinates": [
          58.95182354841716,
          27.564026549507798
        ]
      }
    },
    {
      "type": "Feature",
      "properties": {
        "norad_id": 40072,
        "name": "SKYSAT-B",
        "group": "resource",
        "lat": -65.7630359711203,
        "lon": -34.96717895222296,
        "alt_km": 618.1440125681929,
        "timestamp": "2025-12-27T11:23:19.534498+00:00",
        "meta_object_name": "SKYSAT-B",
        "meta_object_id": "2014-037D",
        "meta_epoch": "2025-12-26T19:32:42.335232",
        "meta_mean_motion": 14.87377636,
        "meta_eccentricity": 0.00068783,
        "meta_inclination": 98.363,
        "meta_ra_of_asc_node": 305.2652,
        "meta_arg_of_pericenter": 111.2738,
        "meta_mean_anomaly": 248.9212,
        "meta_ephemeris_type": 0,
        "meta_classification_type": "U",
        "meta_norad_cat_id": 40072,
        "meta_element_set_no": 999,
        "meta_rev_at_epoch": 62033,
        "meta_bstar": 0.00022123811,
        "meta_mean_motion_dot": 1.939e-05,
        "meta_mean_motion_ddot": 0,
        "tle_line1": "1 40072U 14037D   25360.81437888  .00001939  00000+0  22124-3 0  9996",
        "tle_line2": "2 40072  98.3630 305.2652 0006878 111.2738 248.9212 14.87377636620333"
      },
      "geometry": {
        "type": "Point",
        "coordinates": [
          -34.96717895222296,
          -65.7630359711203
        ]
      }
    },
    {
      "type": "Feature",
      "properties": {
        "norad_id": 40115,
        "name": "WORLDVIEW-3 (WV-3)",
        "group": "resource",
        "lat": 55.72920141929211,
        "lon": 61.8537245122636,
        "alt_km": 608.7446316254745,
        "timestamp": "2025-12-27T11:23:19.534508+00:00",
        "meta_object_name": "WORLDVIEW-3 (WV-3)",
        "meta_object_id": "2014-048A",
        "meta_epoch": "2025-12-27T04:39:53.972352",
        "meta_mean_motion": 14.84681685,
        "meta_eccentricity": 0.0002119,
        "meta_inclination": 97.8762,
        "meta_ra_of_asc_node": 73.2985,
        "meta_arg_of_pericenter": 126.273,
        "meta_mean_anomaly": 233.868,
        "meta_ephemeris_type": 0,
        "meta_classification_type": "U",
        "meta_norad_cat_id": 40115,
        "meta_element_set_no": 999,
        "meta_rev_at_epoch": 61638,
        "meta_bstar": 0.00015872,
        "meta_mean_motion_dot": 1.29e-05,
        "meta_mean_motion_ddot": 0,
        "tle_line1": "1 40115U 14048A   25361.19437468  .00001290  00000+0  15872-3 0  9994",
        "tle_line2": "2 40115  97.8762  73.2985 0002119 126.2730 233.8680 14.84681685616385"
      },
      "geometry": {
        "type": "Point",
        "coordinates": [
          61.8537245122636,
          55.72920141929211
        ]
      }
    }
  ]
}